CCSDS_OMM_VERS = 2.0
CREATION_DATE  = 
ORIGINATOR     = 

OBJECT_NAME    = STARLINK-36422
OBJECT_ID      = 2026-003L
CENTER_NAME    = EARTH
REF_FRAME      = TEME
TIME_SYSTEM    = UTC
MEAN_ELEMENT_THEORY = SGP/SGP4

EPOCH          = 2026-01-25T04:00:00.999936
MEAN_MOTION    = 15.75018469
ECCENTRICITY   = .0001636
INCLINATION    = 42.9989
RA_OF_ASC_NODE = 117.0137
ARG_OF_PERICENTER = 259.3659
MEAN_ANOMALY   = 330.8857

EPHEMERIS_TYPE = 0
CLASSIFICATION_TYPE = U
NORAD_CAT_ID   = 67344
ELEMENT_SET_NO = 999
REV_AT_EPOCH   = 366
BSTAR          = .32646E-3
MEAN_MOTION_DOT = .49922E-3
MEAN_MOTION_DDOT = 0

CCSDS_OMM_VERS = 2.0
CREATION_DATE  = 
ORIGINATOR     = 

OBJECT_NAME    = STARLINK-35676
OBJECT_ID      = 2026-003M
CENTER_NAME    = EARTH
REF_FRAME      = TEME
TIME_SYSTEM    = UTC
MEAN_ELEMENT_THEORY = SGP/SGP4

EPOCH          = 2026-01-25T04:00:00.999936
MEAN_MOTION    = 15.75037453
ECCENTRICITY   = .0001777
INCLINATION    = 42.9988
RA_OF_ASC_NODE = 117.0096
ARG_OF_PERICENTER = 254.2843
MEAN_ANOMALY   = 337.8760

EPHEMERIS_TYPE = 0
CLASSIFICATION_TYPE = U
NORAD_CAT_ID   = 67345
ELEMENT_SET_NO = 999
REV_AT_EPOCH   = 366
BSTAR          = -.53979E-4
MEAN_MOTION_DOT = -.876E-4
MEAN_MOTION_DDOT = 0

CCSDS_OMM_VERS = 2.0
CREATION_DATE  = 
ORIGINATOR     = 

OBJECT_NAME    = STARLINK-36472
OBJECT_ID      = 2026-003N
CENTER_NAME    = EARTH
REF_FRAME      = TEME
TIME_SYSTEM    = UTC
MEAN_ELEMENT_THEORY = SGP/SGP4

EPOCH          = 2026-01-25T04:00:00.999936
MEAN_MOTION    = 15.75035997
ECCENTRICITY   = .0002013
INCLINATION    = 42.9988
RA_OF_ASC_NODE = 117.0045
ARG_OF_PERICENTER = 258.2121
MEAN_ANOMALY   = 335.8646

EPHEMERIS_TYPE = 0
CLASSIFICATION_TYPE = U
NORAD_CAT_ID   = 67346
ELEMENT_SET_NO = 999
REV_AT_EPOCH   = 366
BSTAR          = -.3585E-4
MEAN_MOTION_DOT = -.5981E-4
MEAN_MOTION_DDOT = 0

CCSDS_OMM_VERS = 2.0
CREATION_DATE  = 
ORIGINATOR     = 

OBJECT_NAME    = STARLINK-36420
OBJECT_ID      = 2026-003P
CENTER_NAME    = EARTH
REF_FRAME      = TEME
TIME_SYSTEM    = UTC
MEAN_ELEMENT_THEORY = SGP/SGP4

EPOCH          = 2026-01-25T04:00:00.999936
MEAN_MOTION    = 15.74948632
ECCENTRICITY   = .0001486
INCLINATION    = 42.9989
RA_OF_ASC_NODE = 116.9958
ARG_OF_PERICENTER = 279.0459
MEAN_ANOMALY   = 318.8715

EPHEMERIS_TYPE = 0
CLASSIFICATION_TYPE = U
NORAD_CAT_ID   = 67347
ELEMENT_SET_NO = 999
REV_AT_EPOCH   = 367
BSTAR          = .11665E-2
MEAN_MOTION_DOT = .181899E-2
MEAN_MOTION_DDOT = 0

CCSDS_OMM_VERS = 2.0
CREATION_DATE  = 
ORIGINATOR     = 

OBJECT_NAME    = STARLINK-36467
OBJECT_ID      = 2026-003Q
CENTER_NAME    = EARTH
REF_FRAME      = TEME
TIME_SYSTEM    = UTC
MEAN_ELEMENT_THEORY = SGP/SGP4

EPOCH          = 2026-01-25T04:00:00.999936
MEAN_MOTION    = 15.75003505
ECCENTRICITY   = .0001353
INCLINATION    = 42.9990
RA_OF_ASC_NODE = 117.0009
ARG_OF_PERICENTER = 268.2470
MEAN_ANOMALY   = 327.7558

EPHEMERIS_TYPE = 0
CLASSIFICATION_TYPE = U
NORAD_CAT_ID   = 67348
ELEMENT_SET_NO = 999
REV_AT_EPOCH   = 367
BSTAR          = .50423E-3
MEAN_MOTION_DOT = .7757E-3
MEAN_MOTION_DDOT = 0

CCSDS_OMM_VERS = 2.0
CREATION_DATE  = 
ORIGINATOR     = 

OBJECT_NAME    = STARLINK-36457
OBJECT_ID      = 2026-003R
CENTER_NAME    = EARTH
REF_FRAME      = TEME
TIME_SYSTEM    = UTC
MEAN_ELEMENT_THEORY = SGP/SGP4

EPOCH          = 2026-01-25T04:00:00.999936
MEAN_MOTION    = 15.75037184
ECCENTRICITY   = .0001701
INCLINATION    = 42.9987
RA_OF_ASC_NODE = 116.9900
ARG_OF_PERICENTER = 257.3919
MEAN_ANOMALY   = 342.4410

EPHEMERIS_TYPE = 0
CLASSIFICATION_TYPE = U
NORAD_CAT_ID   = 67349
ELEMENT_SET_NO = 999
REV_AT_EPOCH   = 367
BSTAR          = -.78045E-4
MEAN_MOTION_DOT = -.12447E-3
MEAN_MOTION_DDOT = 0

CCSDS_OMM_VERS = 2.0
CREATION_DATE  = 
ORIGINATOR     = 

OBJECT_NAME    = STARLINK-36475
OBJECT_ID      = 2026-003S
CENTER_NAME    = EARTH
REF_FRAME      = TEME
TIME_SYSTEM    = UTC
MEAN_ELEMENT_THEORY = SGP/SGP4

EPOCH          = 2026-01-25T04:00:00.999936
MEAN_MOTION    = 15.75039267
ECCENTRICITY   = .0002038
INCLINATION    = 42.9988
RA_OF_ASC_NODE = 116.9848
ARG_OF_PERICENTER = 244.6926
MEAN_ANOMALY   = 357.0549

EPHEMERIS_TYPE = 0
CLASSIFICATION_TYPE = U
NORAD_CAT_ID   = 67350
ELEMENT_SET_NO = 999
REV_AT_EPOCH   = 366
BSTAR          = -.94415E-4
MEAN_MOTION_DOT = -.14956E-3
MEAN_MOTION_DDOT = 0

CCSDS_OMM_VERS = 2.0
CREATION_DATE  = 
ORIGINATOR     = 

OBJECT_NAME    = STARLINK-36478
OBJECT_ID      = 2026-003T
CENTER_NAME    = EARTH
REF_FRAME      = TEME
TIME_SYSTEM    = UTC
MEAN_ELEMENT_THEORY = SGP/SGP4

EPOCH          = 2026-01-25T04:00:00.999936
MEAN_MOTION    = 15.75041952
ECCENTRICITY   = .0001794
INCLINATION    = 42.9988
RA_OF_ASC_NODE = 116.9809
ARG_OF_PERICENTER = 265.3822
MEAN_ANOMALY   = 338.2909

EPHEMERIS_TYPE = 0
CLASSIFICATION_TYPE = U
NORAD_CAT_ID   = 67351
ELEMENT_SET_NO = 999
REV_AT_EPOCH   = 366
BSTAR          = -.10007E-4
MEAN_MOTION_DOT = -.2015E-4
MEAN_MOTION_DDOT = 0

CCSDS_OMM_VERS = 2.0
CREATION_DATE  = 
ORIGINATOR     = 

OBJECT_NAME    = STARLINK-36479
OBJECT_ID      = 2026-003U
CENTER_NAME    = EARTH
REF_FRAME      = TEME
TIME_SYSTEM    = UTC
MEAN_ELEMENT_THEORY = SGP/SGP4

EPOCH          = 2026-01-25T04:00:00.999936
MEAN_MOTION    = 15.75036401
ECCENTRICITY   = .0002081
INCLINATION    = 42.9988
RA_OF_ASC_NODE = 116.9754
ARG_OF_PERICENTER = 248.0386
MEAN_ANOMALY   = 357.5464

EPHEMERIS_TYPE = 0
CLASSIFICATION_TYPE = U
NORAD_CAT_ID   = 67352
ELEMENT_SET_NO = 999
REV_AT_EPOCH   = 367
BSTAR          = -.14325E-3
MEAN_MOTION_DOT = -.22423E-3
MEAN_MOTION_DDOT = 0

CCSDS_OMM_VERS = 2.0
CREATION_DATE  = 
ORIGINATOR     = 

OBJECT_NAME    = STARLINK-36474
OBJECT_ID      = 2026-003V
CENTER_NAME    = EARTH
REF_FRAME      = TEME
TIME_SYSTEM    = UTC
MEAN_ELEMENT_THEORY = SGP/SGP4

EPOCH          = 2026-01-25T04:00:00.999936
MEAN_MOTION    = 15.74986165
ECCENTRICITY   = .0001435
INCLINATION    = 42.9989
RA_OF_ASC_NODE = 116.9712
ARG_OF_PERICENTER = 245.0084
MEAN_ANOMALY   = 2.5071

EPHEMERIS_TYPE = 0
CLASSIFICATION_TYPE = U
NORAD_CAT_ID   = 67353
ELEMENT_SET_NO = 999
REV_AT_EPOCH   = 367
BSTAR          = .62293E-3
MEAN_MOTION_DOT = .96083E-3
MEAN_MOTION_DDOT = 0

CCSDS_OMM_VERS = 2.0
CREATION_DATE  = 
ORIGINATOR     = 

OBJECT_NAME    = STARLINK-36448
OBJECT_ID      = 2026-003W
CENTER_NAME    = EARTH
REF_FRAME      = TEME
TIME_SYSTEM    = UTC
MEAN_ELEMENT_THEORY = SGP/SGP4

EPOCH          = 2026-01-25T04:00:00.999936
MEAN_MOTION    = 15.75017507
ECCENTRICITY   = .0002061
INCLINATION    = 42.9987
RA_OF_ASC_NODE = 116.9560
ARG_OF_PERICENTER = 235.2357
MEAN_ANOMALY   = 18.0272

EPHEMERIS_TYPE = 0
CLASSIFICATION_TYPE = U
NORAD_CAT_ID   = 67354
ELEMENT_SET_NO = 999
REV_AT_EPOCH   = 367
BSTAR          = .1592E-3
MEAN_MOTION_DOT = .24024E-3
MEAN_MOTION_DDOT = 0

CCSDS_OMM_VERS = 2.0
CREATION_DATE  = 
ORIGINATOR     = 

OBJECT_NAME    = STARLINK-36477
OBJECT_ID      = 2026-003X
CENTER_NAME    = EARTH
REF_FRAME      = TEME
TIME_SYSTEM    = UTC
MEAN_ELEMENT_THEORY = SGP/SGP4

EPOCH          = 2026-01-25T04:00:00.999936
MEAN_MOTION    = 15.75068903
ECCENTRICITY   = .0001958
INCLINATION    = 42.9987
RA_OF_ASC_NODE = 116.9660
ARG_OF_PERICENTER = 273.2925
MEAN_ANOMALY   = 336.1140

EPHEMERIS_TYPE = 0
CLASSIFICATION_TYPE = U
NORAD_CAT_ID   = 67355
ELEMENT_SET_NO = 999
REV_AT_EPOCH   = 366
BSTAR          = -.40262E-3
MEAN_MOTION_DOT = -.61955E-3
MEAN_MOTION_DDOT = 0

