STARLINK-36422          
1 67344U 26003L   26025.16667824  .00049922  00000+0  32646-3 0  9999
2 67344  42.9989 117.0137 0001636 259.3659 330.8857 15.75018469  3667
STARLINK-35676          
1 67345U 26003M   26025.16667824 -.00008760  00000+0 -53979-4 0  9990
2 67345  42.9988 117.0096 0001777 254.2843 337.8760 15.75037453  3660
STARLINK-36472          
1 67346U 26003N   26025.16667824 -.00005981  00000+0 -35850-4 0  9991
2 67346  42.9988 117.0045 0002013 258.2121 335.8646 15.75035997  3664
STARLINK-36420          
1 67347U 26003P   26025.16667824  .00181899  00000+0  11665-2 0  9999
2 67347  42.9989 116.9958 0001486 279.0459 318.8715 15.74948632  3672
STARLINK-36467          
1 67348U 26003Q   26025.16667824  .00077570  00000+0  50423-3 0  9996
2 67348  42.9990 117.0009 0001353 268.2470 327.7558 15.75003505  3676
STARLINK-36457          
1 67349U 26003R   26025.16667824 -.00012447  00000+0 -78045-4 0  9992
2 67349  42.9987 116.9900 0001701 257.3919 342.4410 15.75037184  3676
STARLINK-36475          
1 67350U 26003S   26025.16667824 -.00014956  00000+0 -94415-4 0  9990
2 67350  42.9988 116.9848 0002038 244.6926 357.0549 15.75039267  3669
STARLINK-36478          
1 67351U 26003T   26025.16667824 -.00002015  00000+0 -10007-4 0  9999
2 67351  42.9988 116.9809 0001794 265.3822 338.2909 15.75041952  3665
STARLINK-36479          
1 67352U 26003U   26025.16667824 -.00022423  00000+0 -14325-3 0  9991
2 67352  42.9988 116.9754 0002081 248.0386 357.5464 15.75036401  3672
STARLINK-36474          
1 67353U 26003V   26025.16667824  .00096083  00000+0  62293-3 0  9990
2 67353  42.9989 116.9712 0001435 245.0084   2.5071 15.74986165  3673
STARLINK-36448          
1 67354U 26003W   26025.16667824  .00024024  00000+0  15920-3 0  9992
2 67354  42.9987 116.9560 0002061 235.2357  18.0272 15.75017507  3674
STARLINK-36477          
1 67355U 26003X   26025.16667824 -.00061955  00000+0 -40262-3 0  9996
2 67355  42.9987 116.9660 0001958 273.2925 336.1140 15.75068903  3666
